[{"OBJECT_NAME":"ONEWEB-0136","OBJECT_ID":"2020-100AA","EPOCH":"2026-04-08T04:56:25.194624","MEAN_MOTION":13.12440951,"ECCENTRICITY":0.0002082,"INCLINATION":87.9011,"RA_OF_ASC_NODE":4.5475,"ARG_OF_PERICENTER":73.2305,"MEAN_ANOMALY":286.9052,"EPHEMERIS_TYPE":0,"CLASSIFICATION_TYPE":"U","NORAD_CAT_ID":47282,"ELEMENT_SET_NO":999,"REV_AT_EPOCH":25548,"BSTAR":0.00011435,"MEAN_MOTION_DOT":5.4e-07,"MEAN_MOTION_DDOT":0.0},{"OBJECT_NAME":"ONEWEB-0137","OBJECT_ID":"2020-100AB","EPOCH":"2026-04-08T03:55:25.435776","MEAN_MOTION":13.12443231,"ECCENTRICITY":0.0001673,"INCLINATION":87.9021,"RA_OF_ASC_NODE":4.5623,"ARG_OF_PERICENTER":78.7733,"MEAN_ANOMALY":281.3584,"EPHEMERIS_TYPE":0,"CLASSIFICATION_TYPE":"U","NORAD_CAT_ID":47283,"ELEMENT_SET_NO":999,"REV_AT_EPOCH":25538,"BSTAR":-0.00057359,"MEAN_MOTION_DOT":-1.94e-06,"MEAN_MOTION_DDOT":0.0},{"OBJECT_NAME":"ONEWEB-0138","OBJECT_ID":"2020-100AC","EPOCH":"2026-04-08T05:13:28.613856","MEAN_MOTION":13.12441038,"ECCENTRICITY":0.0001948,"INCLINATION":87.9015,"RA_OF_ASC_NODE":4.5598,"ARG_OF_PERICENTER":74.0532,"MEAN_ANOMALY":286.0811,"EPHEMERIS_TYPE":0,"CLASSIFICATION_TYPE":"U","NORAD_CAT_ID":47284,"ELEMENT_SET_NO":999,"REV_AT_EPOCH":25547,"BSTAR":-0.00081004,"MEAN_MOTION_DOT":-2.79e-06,"MEAN_MOTION_DDOT":0.0},{"OBJECT_NAME":"ONEWEB-0139","OBJECT_ID":"2020-100AD","EPOCH":"2026-04-08T04:22:28.077888","MEAN_MOTION":13.12442359,"ECCENTRICITY":0.0001809,"INCLINATION":87.9011,"RA_OF_ASC_NODE":4.554,"ARG_OF_PERICENTER":77.884,"MEAN_ANOMALY":282.2492,"EPHEMERIS_TYPE":0,"CLASSIFICATION_TYPE":"U","NORAD_CAT_ID":47285,"ELEMENT_SET_NO":999,"REV_AT_EPOCH":25554,"BSTAR":0.0012954,"MEAN_MOTION_DOT":4.79e-06,"MEAN_MOTION_DDOT":0.0},{"OBJECT_NAME":"ONEWEB-0140","OBJECT_ID":"2020-100AE","EPOCH":"2026-04-08T05:06:09.967104","MEAN_MOTION":13.12440714,"ECCENTRICITY":0.0001918,"INCLINATION":87.9015,"RA_OF_ASC_NODE":4.5374,"ARG_OF_PERICENTER":82.7794,"MEAN_ANOMALY":277.3553,"EPHEMERIS_TYPE":0,"CLASSIFICATION_TYPE":"U","NORAD_CAT_ID":47286,"ELEMENT_SET_NO":999,"REV_AT_EPOCH":25551,"BSTAR":-0.00033859,"MEAN_MOTION_DOT":-1.09e-06,"MEAN_MOTION_DDOT":0.0},{"OBJECT_NAME":"ONEWEB-0141","OBJECT_ID":"2020-100AF","EPOCH":"2026-04-08T04:22:03.998208","MEAN_MOTION":13.12442883,"ECCENTRICITY":0.0001459,"INCLINATION":87.9012,"RA_OF_ASC_NODE":4.5491,"ARG_OF_PERICENTER":76.7601,"MEAN_ANOMALY":283.369,"EPHEMERIS_TYPE":0,"CLASSIFICATION_TYPE":"U","NORAD_CAT_ID":47287,"ELEMENT_SET_NO":999,"REV_AT_EPOCH":25549,"BSTAR":0.0009828900000000002,"MEAN_MOTION_DOT":3.66e-06,"MEAN_MOTION_DDOT":0.0},{"OBJECT_NAME":"ONEWEB-0142","OBJECT_ID":"2020-100AG","EPOCH":"2026-04-08T04:05:22.776000","MEAN_MOTION":13.12443325,"ECCENTRICITY":0.0001607,"INCLINATION":87.9012,"RA_OF_ASC_NODE":4.5756,"ARG_OF_PERICENTER":66.6117,"MEAN_ANOMALY":293.5181,"EPHEMERIS_TYPE":0,"CLASSIFICATION_TYPE":"U","NORAD_CAT_ID":47288,"ELEMENT_SET_NO":999,"REV_AT_EPOCH":25548,"BSTAR":0.00025398,"MEAN_MOTION_DOT":1.04e-06,"MEAN_MOTION_DDOT":0.0},{"OBJECT_NAME":"ONEWEB-0143","OBJECT_ID":"2020-100AH","EPOCH":"2026-04-08T04:19:49.560672","MEAN_MOTION":13.12442869,"ECCENTRICITY":0.0001752,"INCLINATION":87.9013,"RA_OF_ASC_NODE":4.5702,"ARG_OF_PERICENTER":78.779,"MEAN_ANOMALY":281.3536,"EPHEMERIS_TYPE":0,"CLASSIFICATION_TYPE":"U","NORAD_CAT_ID":47289,"ELEMENT_SET_NO":999,"REV_AT_EPOCH":25546,"BSTAR":0.0010456999999999999,"MEAN_MOTION_DOT":3.89e-06,"MEAN_MOTION_DDOT":0.0},{"OBJECT_NAME":"ONEWEB-0144","OBJECT_ID":"2020-100AJ","EPOCH":"2026-04-08T05:28:07.366656","MEAN_MOTION":13.1244445,"ECCENTRICITY":0.0001901,"INCLINATION":87.9017,"RA_OF_ASC_NODE":4.5315,"ARG_OF_PERICENTER":68.5597,"MEAN_ANOMALY":291.5734,"EPHEMERIS_TYPE":0,"CLASSIFICATION_TYPE":"U","NORAD_CAT_ID":47290,"ELEMENT_SET_NO":999,"REV_AT_EPOCH":25539,"BSTAR":-0.00088458,"MEAN_MOTION_DOT":-3.06e-06,"MEAN_MOTION_DDOT":0.0},{"OBJECT_NAME":"ONEWEB-0145","OBJECT_ID":"2020-100AK","EPOCH":"2026-04-08T04:46:39.526176","MEAN_MOTION":13.12442092,"ECCENTRICITY":0.0001761,"INCLINATION":87.9003,"RA_OF_ASC_NODE":4.573,"ARG_OF_PERICENTER":75.1622,"MEAN_ANOMALY":284.9701,"EPHEMERIS_TYPE":0,"CLASSIFICATION_TYPE":"U","NORAD_CAT_ID":47291,"ELEMENT_SET_NO":999,"REV_AT_EPOCH":25558,"BSTAR":0.00044819,"MEAN_MOTION_DOT":1.74e-06,"MEAN_MOTION_DDOT":0.0},{"OBJECT_NAME":"ONEWEB-0146","OBJECT_ID":"2020-100AL","EPOCH":"2026-04-08T04:41:46.718304","MEAN_MOTION":13.124416,"ECCENTRICITY":0.0001903,"INCLINATION":87.9015,"RA_OF_ASC_NODE":4.5605,"ARG_OF_PERICENTER":89.3755,"MEAN_ANOMALY":270.7592,"EPHEMERIS_TYPE":0,"CLASSIFICATION_TYPE":"U","NORAD_CAT_ID":47292,"ELEMENT_SET_NO":999,"REV_AT_EPOCH":25549,"BSTAR":0.00070987,"MEAN_MOTION_DOT":2.68e-06,"MEAN_MOTION_DDOT":0.0},{"OBJECT_NAME":"ONEWEB-0147","OBJECT_ID":"2020-100AM","EPOCH":"2026-04-08T03:52:57.811008","MEAN_MOTION":13.12442468,"ECCENTRICITY":0.0001961,"INCLINATION":87.9018,"RA_OF_ASC_NODE":4.5475,"ARG_OF_PERICENTER":78.8769,"MEAN_ANOMALY":281.258,"EPHEMERIS_TYPE":0,"CLASSIFICATION_TYPE":"U","NORAD_CAT_ID":47293,"ELEMENT_SET_NO":999,"REV_AT_EPOCH":25538,"BSTAR":-0.00040425,"MEAN_MOTION_DOT":-1.33e-06,"MEAN_MOTION_DDOT":0.0},{"OBJECT_NAME":"ONEWEB-0115","OBJECT_ID":"2021-025A","EPOCH":"2026-04-08T04:02:38.454432","MEAN_MOTION":13.13469733,"ECCENTRICITY":0.0001712,"INCLINATION":87.9005,"RA_OF_ASC_NODE":334.1626,"ARG_OF_PERICENTER":83.5166,"MEAN_ANOMALY":276.6158,"EPHEMERIS_TYPE":0,"CLASSIFICATION_TYPE":"U","NORAD_CAT_ID":48042,"ELEMENT_SET_NO":999,"REV_AT_EPOCH":24440,"BSTAR":0.00040711,"MEAN_MOTION_DOT":1.61e-06,"MEAN_MOTION_DDOT":0.0},{"OBJECT_NAME":"ONEWEB-0152","OBJECT_ID":"2021-025B","EPOCH":"2026-04-08T04:22:08.587776","MEAN_MOTION":13.13468982,"ECCENTRICITY":0.0001805,"INCLINATION":87.8996,"RA_OF_ASC_NODE":334.1597,"ARG_OF_PERICENTER":86.0878,"MEAN_ANOMALY":274.0458,"EPHEMERIS_TYPE":0,"CLASSIFICATION_TYPE":"U","NORAD_CAT_ID":48043,"ELEMENT_SET_NO":999,"REV_AT_EPOCH":24436,"BSTAR":0.00086022,"MEAN_MOTION_DOT":3.27e-06,"MEAN_MOTION_DDOT":0.0},{"OBJECT_NAME":"ONEWEB-0153","OBJECT_ID":"2021-025C","EPOCH":"2026-04-08T03:50:27.186432","MEAN_MOTION":13.13469808,"ECCENTRICITY":0.0001695,"INCLINATION":87.8996,"RA_OF_ASC_NODE":334.1686,"ARG_OF_PERICENTER":78.9948,"MEAN_ANOMALY":281.1372,"EPHEMERIS_TYPE":0,"CLASSIFICATION_TYPE":"U","NORAD_CAT_ID":48044,"ELEMENT_SET_NO":999,"REV_AT_EPOCH":24435,"BSTAR":-0.00011987,"MEAN_MOTION_DOT":-3.1e-07,"MEAN_MOTION_DDOT":0.0},{"OBJECT_NAME":"ONEWEB-0154","OBJECT_ID":"2021-025D","EPOCH":"2026-04-08T03:45:34.859808","MEAN_MOTION":13.13470137,"ECCENTRICITY":0.0001825,"INCLINATION":87.8994,"RA_OF_ASC_NODE":334.1668,"ARG_OF_PERICENTER":82.0187,"MEAN_ANOMALY":278.1149,"EPHEMERIS_TYPE":0,"CLASSIFICATION_TYPE":"U","NORAD_CAT_ID":48045,"ELEMENT_SET_NO":999,"REV_AT_EPOCH":24431,"BSTAR":-0.00032551000000000005,"MEAN_MOTION_DOT":-1.06e-06,"MEAN_MOTION_DDOT":0.0}]