ONEWEB-0136             
1 47282U 20100AA  26098.20584716  .00000054  00000+0  11435-3 0  9999
2 47282  87.9011   4.5475 0002082  73.2305 286.9052 13.12440951255484
ONEWEB-0137             
1 47283U 20100AB  26098.16348884 -.00000194  00000+0 -57359-3 0  9991
2 47283  87.9021   4.5623 0001673  78.7733 281.3584 13.12443231255383
ONEWEB-0138             
1 47284U 20100AC  26098.21769229 -.00000279  00000+0 -81004-3 0  9996
2 47284  87.9015   4.5598 0001948  74.0532 286.0811 13.12441038255477
ONEWEB-0139             
1 47285U 20100AD  26098.18226942  .00000479  00000+0  12954-2 0  9990
2 47285  87.9011   4.5540 0001809  77.8840 282.2492 13.12442359255548
ONEWEB-0140             
1 47286U 20100AE  26098.21261536 -.00000109  00000+0 -33859-3 0  9993
2 47286  87.9015   4.5374 0001918  82.7794 277.3553 13.12440714255515
ONEWEB-0141             
1 47287U 20100AF  26098.18199072  .00000366  00000+0  98289-3 0  9996
2 47287  87.9012   4.5491 0001459  76.7601 283.3690 13.12442883255498
ONEWEB-0142             
1 47288U 20100AG  26098.17040250  .00000104  00000+0  25398-3 0  9990
2 47288  87.9012   4.5756 0001607  66.6117 293.5181 13.12443325255487
ONEWEB-0143             
1 47289U 20100AH  26098.18043473  .00000389  00000+0  10457-2 0  9996
2 47289  87.9013   4.5702 0001752  78.7790 281.3536 13.12442869255461
ONEWEB-0144             
1 47290U 20100AJ  26098.22786304 -.00000306  00000+0 -88458-3 0  9998
2 47290  87.9017   4.5315 0001901  68.5597 291.5734 13.12444450255398
ONEWEB-0145             
1 47291U 20100AK  26098.19906859  .00000174  00000+0  44819-3 0  9998
2 47291  87.9003   4.5730 0001761  75.1622 284.9701 13.12442092255583
ONEWEB-0146             
1 47292U 20100AL  26098.19567961  .00000268  00000+0  70987-3 0  9995
2 47292  87.9015   4.5605 0001903  89.3755 270.7592 13.12441600255495
ONEWEB-0147             
1 47293U 20100AM  26098.16178022 -.00000133  00000+0 -40425-3 0  9996
2 47293  87.9018   4.5475 0001961  78.8769 281.2580 13.12442468255381
ONEWEB-0115             
1 48042U 21025A   26098.16850063  .00000161  00000+0  40711-3 0  9995
2 48042  87.9005 334.1626 0001712  83.5166 276.6158 13.13469733244403
ONEWEB-0152             
1 48043U 21025B   26098.18204384  .00000327  00000+0  86022-3 0  9996
2 48043  87.8996 334.1597 0001805  86.0878 274.0458 13.13468982244365
ONEWEB-0153             
1 48044U 21025C   26098.16003688 -.00000031  00000+0 -11987-3 0  9991
2 48044  87.8996 334.1686 0001695  78.9948 281.1372 13.13469808244351
ONEWEB-0154             
1 48045U 21025D   26098.15665347 -.00000106  00000+0 -32551-3 0  9990
2 48045  87.8994 334.1668 0001825  82.0187 278.1149 13.13470137244317
